{"type": "FeatureCollection", "features": [{"type": "Feature", "properties": {"shapeName": "Bangkok", "shapeISO": "TH-10", "shapeID": "36821470B28205534186964", "shapeGroup": "THA", "shapeType": "ADM1"}, "geometry": {"type": "Polygon", "coordinates": [[[100.9141408, 13.9462063], [100.7925758, 13.9316117], [100.7526675, 13.9184792], [100.6868292, 13.9162736], [100.6897725, 13.9310221], [100.6408959, 13.9314009], [100.6396066, 13.9326618], [100.6397859, 13.9372884], [100.6248996, 13.9379826], [100.6245989, 13.9487696], [100.6128074, 13.9551875], [100.6067546, 13.9550172], [100.6068662, 13.9537896], [100.6043548, 13.9535051], [100.6056577, 13.9441192], [100.5899972, 13.9509287], [100.5740049, 13.9546146], [100.5675998, 13.951353], [100.543703, 13.8497479], [100.5360603, 13.8460891], [100.5131447, 13.8260984], [100.5131104, 13.8247565], [100.5117886, 13.8260567], [100.5092566, 13.8254983], [100.5099604, 13.8240564], [100.5075743, 13.8226396], [100.5063218, 13.816492], [100.5148118, 13.8133685], [100.5010877, 13.8010047], [100.4662677, 13.7891559], [100.4697407, 13.7947483], [100.458854, 13.7982595], [100.4152199, 13.8011558], [100.3278772, 13.8041844], [100.331776, 13.7959918], [100.3312246, 13.7929684], [100.3338779, 13.7833948], [100.3302061, 13.7729728], [100.3302275, 13.7612496], [100.3330197, 13.7601783], [100.3327949, 13.7553659], [100.3354417, 13.7533921], [100.3357491, 13.741273], [100.3375172, 13.7359709], [100.337566, 13.732726], [100.3350126, 13.7322257], [100.3345191, 13.7304018], [100.3366788, 13.726237], [100.3362158, 13.7230076], [100.3329945, 13.7210924], [100.3387832, 13.7127792], [100.3352803, 13.7111266], [100.3340684, 13.713069], [100.3323111, 13.7124681], [100.3334354, 13.7076594], [100.3301632, 13.702763], [100.3335429, 13.6813712], [100.3360435, 13.6769534], [100.33759, 13.6773767], [100.3412801, 13.6608554], [100.3393685, 13.6549652], [100.3467236, 13.6553193], [100.346216, 13.6491171], [100.3449539, 13.6487709], [100.3459802, 13.6436009], [100.3486176, 13.6437812], [100.3484118, 13.6407102], [100.354271, 13.63991], [100.3552478, 13.6365442], [100.3589264, 13.6374487], [100.359408, 13.6329059], [100.3659647, 13.6336906], [100.3713019, 13.6252319], [100.3720796, 13.6209099], [100.3755366, 13.6188015], [100.3790688, 13.5973765], [100.3784852, 13.5941896], [100.3841929, 13.5895511], [100.3859181, 13.5854047], [100.3839076, 13.576744], [100.3851092, 13.5720717], [100.3864825, 13.5697356], [100.3906024, 13.5675663], [100.3947222, 13.55722], [100.4132617, 13.5607244], [100.414635, 13.5565525], [100.4127467, 13.5532149], [100.4202998, 13.5453714], [100.4168665, 13.5393634], [100.4170382, 13.535358], [100.4063952, 13.535358], [100.4055369, 13.5078189], [100.4090046, 13.4934205], [100.4097724, 13.4958008], [100.4121436, 13.4941569], [100.4134885, 13.4952286], [100.4143852, 13.4943022], [100.4145199, 13.495937], [100.4167575, 13.4944112], [100.4215209, 13.4949561], [100.425672, 13.497817], [100.4270238, 13.4961896], [100.4345126, 13.49644], [100.4353499, 13.4981325], [100.4371519, 13.4968155], [100.4382677, 13.4992985], [100.4418082, 13.4986308], [100.4533529, 13.5041207], [100.4448474, 13.555885], [100.4458773, 13.5829179], [100.4466498, 13.5870476], [100.4508298, 13.5943726], [100.4538767, 13.6060269], [100.4575245, 13.6044419], [100.4640906, 13.6056932], [100.4659617, 13.6036494], [100.4668629, 13.5969337], [100.4697125, 13.592704], [100.4735835, 13.5939304], [100.4731114, 13.5992112], [100.4769265, 13.6029681], [100.4770081, 13.5992279], [100.4806044, 13.598085], [100.4822524, 13.5924287], [100.4895352, 13.5884239], [100.4946463, 13.5876457], [100.4985691, 13.5910813], [100.499628, 13.5956329], [100.5048373, 13.5976893], [100.5114806, 13.5968111], [100.5138239, 13.6026235], [100.5210167, 13.6051441], [100.5202697, 13.6091419], [100.5163486, 13.6126841], [100.5142207, 13.6286216], [100.518043, 13.6349196], [100.5150632, 13.6394829], [100.5168089, 13.645564], [100.5175771, 13.6672274], [100.5210885, 13.669125], [100.5204134, 13.6709706], [100.5219926, 13.6735156], [100.5203733, 13.6756166], [100.5228322, 13.6781679], [100.5359764, 13.669416], [100.5440104, 13.670127], [100.5480185, 13.672754], [100.5520887, 13.6807968], [100.5517966, 13.7019213], [100.556065, 13.7061323], [100.5625639, 13.7059106], [100.5789442, 13.6998818], [100.5860945, 13.6942199], [100.5885493, 13.6900418], [100.588784, 13.6830743], [100.5873708, 13.6793247], [100.5794589, 13.669285], [100.5959776, 13.662324], [100.5960444, 13.6608614], [100.6004864, 13.6594592], [100.6013897, 13.657076], [100.6020895, 13.6587629], [100.6046198, 13.6581015], [100.6050774, 13.6594585], [100.6074101, 13.6585725], [100.6068837, 13.6571559], [100.6156982, 13.6536567], [100.6175205, 13.6571232], [100.6304488, 13.6506321], [100.6301385, 13.6493632], [100.6358068, 13.6487187], [100.6407557, 13.6545723], [100.6499835, 13.6523666], [100.6507898, 13.6602941], [100.655405, 13.6722948], [100.6598983, 13.6701242], [100.6622227, 13.6713359], [100.6668709, 13.6681769], [100.6664483, 13.6671657], [100.6783717, 13.661428], [100.6982318, 13.6558631], [100.6996859, 13.6636795], [100.70641, 13.678611], [100.7110523, 13.7012219], [100.7123585, 13.7012745], [100.7099173, 13.7169711], [100.7163059, 13.7170212], [100.7162956, 13.718418], [100.7303482, 13.7184906], [100.7307156, 13.7168441], [100.7879663, 13.7167233], [100.8593387, 13.6897791], [100.8607551, 13.697029], [100.8551559, 13.6993956], [100.8905185, 13.7561251], [100.9099158, 13.7905482], [100.9283095, 13.8011879], [100.9384449, 13.8144244], [100.9076969, 13.8381724], [100.9126747, 13.846822], [100.9022158, 13.8488479], [100.9047045, 13.8588592], [100.9062984, 13.8603719], [100.9065237, 13.8809376], [100.9141408, 13.9462063]]]}}]}