{"type": "FeatureCollection", "features": [{"type": "Feature", "properties": {"name_en": "Khlong San", "name_th": "คลองสาน", "centroid": [100.50204, 13.72285], "bbox": [100.49221, 13.70514, 100.5123, 13.73922]}, "geometry": {"type": "Polygon", "coordinates": [[[100.50817089700007, 13.712460984000074], [100.51203169500008, 13.719335614000045], [100.51229834900005, 13.729392587000063], [100.50916477600003, 13.735408780000057], [100.49980669000007, 13.738632557000074], [100.49764789800008, 13.739218486000027], [100.49220608400003, 13.723118958000043], [100.49314612700005, 13.712914210000065], [100.49863760900007, 13.705137064000041], [100.50817089700007, 13.712460984000074]]]}}, {"type": "Feature", "properties": {"name_en": "Khlong Sam Wa", "name_th": "คลองสามวา", "centroid": [100.73929, 13.87463], "bbox": [100.67084, 13.81549, 100.799, 13.93139]}, "geometry": {"type": "Polygon", "coordinates": [[[100.67545749200008, 13.856381383000041], [100.67083912400005, 13.852761274000045], [100.67687580700004, 13.85163317000007], [100.68384806900008, 13.848130457000025], [100.68781273100007, 13.838641833000054], [100.68793712400009, 13.834643999000036], [100.69064447900007, 13.832351020000033], [100.69704402600007, 13.820223163000037], [100.69677590500004, 13.81549276100003], [100.70577847300007, 13.821144620000041], [100.71543673800005, 13.821897660000047], [100.71456868200005, 13.831335459000059], [100.72017553200004, 13.831495735000033], [100.72019245500007, 13.837278720000029], [100.72232267300006, 13.837492275000045], [100.72255367800005, 13.827513487000033], [100.72973239400005, 13.827673738000044], [100.72965768000006, 13.83645086000007], [100.73546908400004, 13.838456396000026], [100.73588932500007, 13.836785145000022], [100.73992853700008, 13.837395750000042], [100.74416048200004, 13.83476390800007], [100.74672845000003, 13.824752735000061], [100.74931842500007, 13.822072196000022], [100.79899596500007, 13.849289744000032], [100.78742159600006, 13.879987173000075], [100.79094480800006, 13.881906568000034], [100.79593385600003, 13.89054888100003], [100.79233765900005, 13.893505661000063], [100.79259302400004, 13.931387879000056], [100.75190864600006, 13.918363819000035], [100.68695337600008, 13.916254426000023], [100.68378637200004, 13.913543797000045], [100.68364355300008, 13.911516582000047], [100.68696626100007, 13.909351489000073], [100.69228964000007, 13.898095745000035], [100.69211105400007, 13.886731693000058], [100.69012152000005, 13.88470925200005], [100.68992699100005, 13.87969957000007], [100.68449650700006, 13.87424829300005], [100.68577476100006, 13.869323983000072], [100.68311428000004, 13.862001746000033], [100.68036552000007, 13.858667276000062], [100.67545749200008, 13.856381383000041]]]}}, {"type": "Feature", "properties": {"name_en": "Khlong Toei", "name_th": "คลองเตย", "centroid": [100.57226, 13.71568], "bbox": [100.5507, 13.6961, 100.60166, 13.74285]}, "geometry": {"type": "Polygon", "coordinates": [[[100.60165893700008, 13.704666227000075], [100.59840645600008, 13.710325389000047], [100.55069532700008, 13.742848937000076], [100.55291228900006, 13.722771623000028], [100.55375391500007, 13.716543495000053], [100.55486719200007, 13.705483354000023], [100.55983992300008, 13.706203358000039], [100.56712500900005, 13.70451455400007], [100.57771787000007, 13.700222374000077], [100.58391953000006, 13.69609611900006], [100.60165893700008, 13.704666227000075]]]}}, {"type": "Feature", "properties": {"name_en": "Khan Na Yao", "name_th": "คันนายาว", "centroid": [100.67727, 13.82129], "bbox": [100.64599, 13.78121, 100.70496, 13.85696]}, "geometry": {"type": "Polygon", "coordinates": [[[100.64598685000004, 13.847368251000034], [100.65021496600008, 13.844833143000074], [100.64772651500004, 13.844167646000074], [100.64859974800004, 13.833888783000077], [100.65730499500006, 13.835574575000066], [100.65790624700008, 13.832988452000052], [100.66142267000004, 13.833478608000064], [100.66126564300004, 13.825779140000066], [100.66013231300008, 13.824427495000066], [100.66286659100007, 13.810090302000049], [100.66664681300006, 13.805101250000064], [100.66868326300005, 13.805671519000043], [100.67353932800006, 13.796316345000037], [100.67656669000007, 13.786744], [100.67380372000008, 13.783834504000026], [100.67513534100004, 13.781205881000062], [100.70496396600004, 13.797679626000047], [100.70056308400007, 13.80458324500006], [100.70186407700004, 13.809140273000025], [100.69810061300007, 13.811848138000073], [100.69677590500004, 13.81549276100003], [100.69704402600007, 13.820223163000037], [100.69064447900007, 13.832351020000033], [100.68793712400009, 13.834643999000036], [100.68781273100007, 13.838641833000054], [100.68384806900008, 13.848130457000025], [100.67687580700004, 13.85163317000007], [100.67083912400005, 13.852761274000045], [100.67545749200008, 13.856381383000041], [100.66967838500005, 13.85695736100007], [100.66474678100008, 13.854693028000042], [100.66319993100007, 13.85603338900006], [100.66114468700005, 13.852579409000043], [100.65830303000007, 13.85239137700006], [100.65864014800007, 13.847763352000072], [100.64873063900006, 13.846211269000037], [100.64814898800006, 13.847620618000064], [100.64598685000004, 13.847368251000034]]]}}, {"type": "Feature", "properties": {"name_en": "Chatuchak", "name_th": "จตุจักร", "centroid": [100.56525, 13.82647], "bbox": [100.53712, 13.79468, 100.59112, 13.85893]}, "geometry": {"type": "Polygon", "coordinates": [[[100.58654720500004, 13.858933983000043], [100.55789510000005, 13.854132105000076], [100.54362947200008, 13.849628112000062], [100.53711704500006, 13.821651881000037], [100.54340737000007, 13.820661906000055], [100.54500233600004, 13.817713745000049], [100.53742427600008, 13.79785442900004], [100.56162658600005, 13.794959305000077], [100.56645686300004, 13.79467806200006], [100.56746520200005, 13.799281553000071], [100.57489622500003, 13.801069838000046], [100.58834139400005, 13.802980927000021], [100.59111797400004, 13.837485107000077], [100.58986609900006, 13.84392907800003], [100.58654720500004, 13.858933983000043]]]}}, {"type": "Feature", "properties": {"name_en": "Chom Thong", "name_th": "จอมทอง", "centroid": [100.46312, 13.68719], "bbox": [100.4347, 13.65567, 100.48898, 13.71789]}, "geometry": {"type": "Polygon", "coordinates": [[[100.44679705800007, 13.682558432000064], [100.44862118100008, 13.681527655000025], [100.44884487600007, 13.675332466000043], [100.45154851200004, 13.675430839000057], [100.45342892100007, 13.66890231800005], [100.45038770700006, 13.660809143000051], [100.45830005400006, 13.65785201500006], [100.46115064700007, 13.658870914000033], [100.46460877300007, 13.655674945000044], [100.47033367300008, 13.65904032900005], [100.47007004900007, 13.660184791000063], [100.47589157300007, 13.660888700000044], [100.47579651200004, 13.661882128000059], [100.47556355600005, 13.66357707000003], [100.48213251200008, 13.664770629000031], [100.48019063200007, 13.669203700000025], [100.48853453900006, 13.679530983000063], [100.48735931400006, 13.682491625000068], [100.48898328700005, 13.684649896000053], [100.48151025900006, 13.690485569000032], [100.48254528000007, 13.694834889000049], [100.47954093200008, 13.69803894100005], [100.47641205000008, 13.711178277000045], [100.47192024200007, 13.710365916000057], [100.46853580000004, 13.712388479000026], [100.46923467500005, 13.715962863000073], [100.46283961200004, 13.717891199000064], [100.46333558600008, 13.714834017000044], [100.45519723500007, 13.712577486000043], [100.45589009500009, 13.708429349000028], [100.45274435200008, 13.710118799000043], [100.44998533900008, 13.705328880000025], [100.43911327500007, 13.709361467000065], [100.43470013800004, 13.698903319000067], [100.43773390500007, 13.693684476000044], [100.44679705800007, 13.682558432000064]]]}}, {"type": "Feature", "properties": {"name_en": "Don Mueang", "name_th": "ดอนเมือง", "centroid": [100.59363, 13.92524], "bbox": [100.55889, 13.88763, 100.62659, 13.9552]}, "geometry": {"type": "Polygon", "coordinates": [[[100.61113183000003, 13.899779846000058], [100.62659362600004, 13.926129569000068], [100.62254545900004, 13.950251041000058], [100.61284703200005, 13.955198179000035], [100.60652594900006, 13.954378499000029], [100.60422515000005, 13.954255192000062], [100.60567714300004, 13.944099922000078], [100.59178481800006, 13.950337601000058], [100.57406066900006, 13.954633216000047], [100.56754835800007, 13.951203277000047], [100.55889311700008, 13.914457016000028], [100.56318329100009, 13.91333430800006], [100.57178946000005, 13.906954042000052], [100.58747844500004, 13.899376195000059], [100.58273825800006, 13.890774403000023], [100.59481328300006, 13.887630844000057], [100.61113183000003, 13.899779846000058]]]}}, {"type": "Feature", "properties": {"name_en": "Din Daeng", "name_th": "ดินแดง", "centroid": [100.56336, 13.77521], "bbox": [100.54343, 13.75513, 100.5749, 13.80107]}, "geometry": {"type": "Polygon", "coordinates": [[[100.56162658600005, 13.794959305000077], [100.56130745900003, 13.787063635000038], [100.54834272900007, 13.76354821600006], [100.54343121400007, 13.762715976000038], [100.55039728200006, 13.758688550000045], [100.55246539200004, 13.75598823200005], [100.56496850000008, 13.75512621300004], [100.56683518500006, 13.76152459900004], [100.57341608800004, 13.770911003000037], [100.57489622500003, 13.801069838000046], [100.56746520200005, 13.799281553000071], [100.56645686300004, 13.79467806200006], [100.56162658600005, 13.794959305000077]]]}}, {"type": "Feature", "properties": {"name_en": "Dusit", "name_th": "ดุสิต", "centroid": [100.51821, 13.78003], "bbox": [100.49904, 13.75273, 100.53742, 13.80036]}, "geometry": {"type": "Polygon", "coordinates": [[[100.49903981300008, 13.77266572700006], [100.50367363600009, 13.769952149000062], [100.50939924600004, 13.763650817000041], [100.51636838200005, 13.756712125000035], [100.51737146000005, 13.753099860000077], [100.51916671800006, 13.752732672000036], [100.52788649100006, 13.774338363000027], [100.53742427600008, 13.79785442900004], [100.53320382600003, 13.799827589000074], [100.53233099200008, 13.798213085000043], [100.51649756100005, 13.80035809800006], [100.51388685400008, 13.795300032000057], [100.50365272200008, 13.783575449000068], [100.49903981300008, 13.77266572700006]]]}}, {"type": "Feature", "properties": {"name_en": "Taling Chan", "name_th": "ตลิ่งชัน", "centroid": [100.43522, 13.77166], "bbox": [100.40618, 13.74009, 100.46966, 13.80135]}, "geometry": {"type": "Polygon", "coordinates": [[[100.41338956400006, 13.74793375400003], [100.43505137600005, 13.740088297000057], [100.44991549800005, 13.74049758600006], [100.45442338800007, 13.74261935900006], [100.45617189200004, 13.742128485000023], [100.45713014000006, 13.744060668000031], [100.46205219200004, 13.744419748000041], [100.46196302900006, 13.75155976800005], [100.45414407700008, 13.762992496000038], [100.45356580400005, 13.767977694000024], [100.45761090400003, 13.777296030000059], [100.46767797000007, 13.779695189000051], [100.46593869000009, 13.787158609000073], [100.46617687000008, 13.788917403000028], [100.46965838100004, 13.794790355000032], [100.46415429100006, 13.797313860000031], [100.41105770500008, 13.801346720000026], [100.40618470000004, 13.749437693000061], [100.41338956400006, 13.74793375400003]]]}}, {"type": "Feature", "properties": {"name_en": "Thawi Watthana", "name_th": "ทวีวัฒนา", "centroid": [100.36831, 13.77531], "bbox": [100.32791, 13.73604, 100.41106, 13.80413]}, "geometry": {"type": "Polygon", "coordinates": [[[100.40618470000004, 13.749437693000061], [100.41105770500008, 13.801346720000026], [100.32791238700008, 13.80412552100006], [100.33069683100007, 13.798145851000072], [100.33389502600005, 13.782166670000038], [100.33190470100004, 13.781375941000022], [100.33196336800006, 13.777622231000066], [100.33094023700005, 13.777563648000068], [100.33010398200008, 13.76309221200006], [100.33302465400004, 13.759589177000066], [100.33277755800003, 13.755373314000053], [100.33447913300006, 13.755217604000052], [100.33538438900007, 13.753286999000068], [100.33498805800008, 13.747094624000056], [100.33745528100008, 13.736036289000026], [100.35935948200006, 13.738002047000066], [100.35268334900007, 13.752164031000063], [100.36910635900006, 13.753897702000074], [100.40618470000004, 13.749437693000061]]]}}, {"type": "Feature", "properties": {"name_en": "Thung Khru", "name_th": "ทุ่งครุ", "centroid": [100.49543, 13.62758], "bbox": [100.47007, 13.58616, 100.52104, 13.66307]}, "geometry": {"type": "Polygon", "coordinates": [[[100.47693016600005, 13.602955251000026], [100.47692889700005, 13.599320183000032], [100.48062942500007, 13.598007395000025], [100.48191308000008, 13.592708303000052], [100.48846583100004, 13.58946181500005], [100.49119646000008, 13.58615773300005], [100.49670626900007, 13.588894774000039], [100.49904169900003, 13.591951688000051], [100.49963758600006, 13.595640960000026], [100.50481534000005, 13.597696220000046], [100.51151138100005, 13.596854386000075], [100.51374427000007, 13.602594209000074], [100.52103794300007, 13.605141864000075], [100.52034725000004, 13.60901061100003], [100.51638708500008, 13.612715625000021], [100.51424048700005, 13.628379719000066], [100.51806959200007, 13.634875], [100.51509583800004, 13.639479597000047], [100.51535310300005, 13.64502948300003], [100.51695475400004, 13.645709839000062], [100.51622435800004, 13.65134735600003], [100.51751520700009, 13.661599672000023], [100.51328006900007, 13.66074493900004], [100.50822701900006, 13.662746408000032], [100.50100784100005, 13.652963114000045], [100.49404086600003, 13.657261256000027], [100.49325261500007, 13.655744170000048], [100.48539054100007, 13.657828497000025], [100.48232733000003, 13.663070828000059], [100.47579651200004, 13.661882128000059], [100.47589157300007, 13.660888700000044], [100.47007004900007, 13.660184791000063], [100.47033367300008, 13.65904032900005], [100.47565444900005, 13.63054298000003], [100.47214701000007, 13.62406782000005], [100.47619500800005, 13.62011149400007], [100.47837662500007, 13.61977708300003], [100.48171207600006, 13.615343514000074], [100.47958171800008, 13.606089841000028], [100.47693016600005, 13.602955251000026]]]}}, {"type": "Feature", "properties": {"name_en": "Thon Buri", "name_th": "ธนบุรี", "centroid": [100.48542, 13.71539], "bbox": [100.46854, 13.69483, 100.49864, 13.74217]}, "geometry": {"type": "Polygon", "coordinates": [[[100.49863760900007, 13.705137064000041], [100.49314612700005, 13.712914210000065], [100.49220608400003, 13.723118958000043], [100.49764789800008, 13.739218486000027], [100.49196979800007, 13.742172671000048], [100.48737763300005, 13.735195452000028], [100.48457489100008, 13.724873182000067], [100.47856156800003, 13.722594229000038], [100.47163796800004, 13.722443215000055], [100.46923467500005, 13.715962863000073], [100.46853580000004, 13.712388479000026], [100.47192024200007, 13.710365916000057], [100.47641205000008, 13.711178277000045], [100.47954093200008, 13.69803894100005], [100.48254528000007, 13.694834889000049], [100.48999809100007, 13.695261866000067], [100.49200773000007, 13.700614447000078], [100.49863760900007, 13.705137064000041]]]}}, {"type": "Feature", "properties": {"name_en": "Bangkok Noi", "name_th": "บางกอกน้อย", "centroid": [100.47162, 13.76252], "bbox": [100.45357, 13.74319, 100.49097, 13.78716]}, "geometry": {"type": "Polygon", "coordinates": [[[100.46593869000009, 13.787158609000073], [100.46767797000007, 13.779695189000051], [100.45761090400003, 13.777296030000059], [100.45356580400005, 13.767977694000024], [100.45414407700008, 13.762992496000038], [100.46196302900006, 13.75155976800005], [100.46205219200004, 13.744419748000041], [100.47133504300007, 13.743193231000078], [100.47709101700008, 13.744056727000043], [100.47814128700008, 13.746345767000037], [100.48227423400004, 13.746123872000055], [100.48829925000007, 13.748209494000037], [100.48794001000005, 13.756848931000036], [100.49097198800007, 13.761928724000029], [100.46910599100005, 13.787104732000046], [100.46593869000009, 13.787158609000073]]]}}, {"type": "Feature", "properties": {"name_en": "Bangkok Yai", "name_th": "บางกอกใหญ่", "centroid": [100.47635, 13.73528], "bbox": [100.46205, 13.72244, 100.49197, 13.74821]}, "geometry": {"type": "Polygon", "coordinates": [[[100.46205219200004, 13.744419748000041], [100.46293373200007, 13.732249306000028], [100.46719131200007, 13.725267655000039], [100.47163796800004, 13.722443215000055], [100.47856156800003, 13.722594229000038], [100.48457489100008, 13.724873182000067], [100.48737763300005, 13.735195452000028], [100.49196979800007, 13.742172671000048], [100.48829925000007, 13.748209494000037], [100.48227423400004, 13.746123872000055], [100.47814128700008, 13.746345767000037], [100.47709101700008, 13.744056727000043], [100.47133504300007, 13.743193231000078], [100.46205219200004, 13.744419748000041]]]}}, {"type": "Feature", "properties": {"name_en": "Bang Kapi", "name_th": "บางกะปิ", "centroid": [100.64015, 13.76925], "bbox": [100.60125, 13.73839, 100.67889, 13.81931]}, "geometry": {"type": "Polygon", "coordinates": [[[100.66462440800007, 13.775369817000069], [100.65618110700007, 13.770707147000053], [100.64816685800008, 13.784770757000047], [100.64271701300004, 13.786944492000032], [100.64047689400007, 13.79222672700007], [100.63925177300007, 13.80410857000004], [100.63410358800007, 13.80949842800004], [100.63100080400005, 13.815476059000048], [100.63133386300007, 13.819191422000074], [100.62598073900006, 13.819306537000045], [100.62447812000005, 13.817398727000068], [100.61506420100005, 13.799774373000048], [100.62363650800006, 13.800218648000055], [100.62591307900004, 13.788103773000046], [100.62904933000004, 13.788697543000069], [100.63065504900004, 13.784105992000036], [100.62924874800007, 13.775091386000042], [100.62827291300005, 13.775646442000038], [100.63048933300007, 13.763254790000076], [100.61524688900005, 13.761274456000024], [100.60409512000007, 13.751200633000053], [100.60125180600005, 13.748090111000067], [100.61109040800005, 13.743826138000031], [100.63581013800007, 13.750120755000069], [100.64556378800006, 13.746450692000053], [100.64855029400007, 13.744072596000024], [100.64747608000005, 13.742633450000028], [100.64860509200008, 13.741820346000054], [100.65908613500005, 13.738385275000041], [100.66333094700008, 13.740227551000032], [100.66303463000008, 13.742206295000074], [100.66631811700006, 13.747047328000065], [100.67225585200003, 13.749486771000022], [100.67701455200006, 13.749064367000074], [100.67888656600007, 13.752104317000033], [100.66971897200006, 13.756283395000025], [100.66880289700003, 13.766623625000022], [100.66462440800007, 13.775369817000069]]]}}, {"type": "Feature", "properties": {"name_en": "Bang Khun Thian", "name_th": "บางขุนเทียน", "centroid": [100.4276, 13.59266], "bbox": [100.37648, 13.49339, 100.48171, 13.68256]}, "geometry": {"type": "Polygon", "coordinates": [[[100.37648208400009, 13.619703151000067], [100.37851819400004, 13.594277249000072], [100.38436168200008, 13.589517468000054], [100.38597491300004, 13.584963827000024], [100.38499522600006, 13.579129454000054], [100.38660434300004, 13.577947255000026], [100.38664736200008, 13.574693936000074], [100.38797957800006, 13.574289646000068], [100.38948790800004, 13.569784795000032], [100.39148522800008, 13.568898409000042], [100.39130664200007, 13.563261139000076], [100.39312117400004, 13.561474597000029], [100.39467028200005, 13.554985738000028], [100.39582201600007, 13.553472173000046], [100.40101989700008, 13.552822426000034], [100.40436917000005, 13.555059349000032], [100.40851773000009, 13.554532947000041], [100.41189776300007, 13.55547600400007], [100.41255599800007, 13.557241341000065], [100.41521388500007, 13.557151797000074], [100.41464413600005, 13.551455988000043], [100.42008972900004, 13.545241469000075], [100.41832304300004, 13.540538860000026], [100.41484827000005, 13.538832125000056], [100.41406697700006, 13.535871970000073], [100.40632586800007, 13.535797271000035], [100.40682494400005, 13.50222], [100.40883825200007, 13.493389571000023], [100.42162744600006, 13.494743155000037], [100.42304592500005, 13.496820329000059], [100.42369120700005, 13.495846568000047], [100.42581291200008, 13.49756276200003], [100.43073729100007, 13.495834451000064], [100.43490959300004, 13.496585818000028], [100.43493385000005, 13.498092646000032], [100.43708317600004, 13.496768709000037], [100.44305891100004, 13.500358685000037], [100.45369343500005, 13.501979764000055], [100.44446201100004, 13.553194148000046], [100.44658651500004, 13.58701718900005], [100.45083292300006, 13.594559305000075], [100.45396820200006, 13.60601368500005], [100.45754789900008, 13.604401302000042], [100.46394765900004, 13.605849188000036], [100.46586829700004, 13.603900447000058], [100.46686381100005, 13.596954049000033], [100.46969449700003, 13.592667428000027], [100.47365388400004, 13.593876167000076], [100.47309796300004, 13.59903835800003], [100.47693016600005, 13.602955251000026], [100.47958171800008, 13.606089841000028], [100.48171207600006, 13.615343514000074], [100.47837662500007, 13.61977708300003], [100.47619500800005, 13.62011149400007], [100.47214701000007, 13.62406782000005], [100.47565444900005, 13.63054298000003], [100.47033367300008, 13.65904032900005], [100.46460877300007, 13.655674945000044], [100.46115064700007, 13.658870914000033], [100.45830005400006, 13.65785201500006], [100.45038770700006, 13.660809143000051], [100.45342892100007, 13.66890231800005], [100.45154851200004, 13.675430839000057], [100.44884487600007, 13.675332466000043], [100.44862118100008, 13.681527655000025], [100.44679705800007, 13.682558432000064], [100.37648208400009, 13.619703151000067]]]}}, {"type": "Feature", "properties": {"name_en": "Bang Kho Laem", "name_th": "บางคอแหลม", "centroid": [100.50988, 13.69678], "bbox": [100.49, 13.68268, 100.53176, 13.71246]}, "geometry": {"type": "Polygon", "coordinates": [[[100.52994573900008, 13.702543641000034], [100.52492442600004, 13.700885524000057], [100.52064289600008, 13.70416984800005], [100.51967571900008, 13.70322284200006], [100.51462529600008, 13.704920816000026], [100.51695374000008, 13.709648942000058], [100.50817089700007, 13.712460984000074], [100.49863760900007, 13.705137064000041], [100.49200773000007, 13.700614447000078], [100.48999809100007, 13.695261866000067], [100.49182469300007, 13.691569282000046], [100.49555877600005, 13.688490226000056], [100.51698184600008, 13.682678629000065], [100.53176057800005, 13.698253744000056], [100.52994573900008, 13.702543641000034]]]}}, {"type": "Feature", "properties": {"name_en": "Bang Sue", "name_th": "บางซื่อ", "centroid": [100.52827, 13.82004], "bbox": [100.50629, 13.79785, 100.545, 13.84963]}, "geometry": {"type": "Polygon", "coordinates": [[[100.51525513000007, 13.813274840000076], [100.51749334000004, 13.808578362000048], [100.51649756100005, 13.80035809800006], [100.53233099200008, 13.798213085000043], [100.53320382600003, 13.799827589000074], [100.53742427600008, 13.79785442900004], [100.54500233600004, 13.817713745000049], [100.54340737000007, 13.820661906000055], [100.53711704500006, 13.821651881000037], [100.54362947200008, 13.849628112000062], [100.53597427000005, 13.846042003000036], [100.51334163600006, 13.826261561000024], [100.51309916200006, 13.824733355000035], [100.51183329100007, 13.826076711000042], [100.50937727500008, 13.825611524000067], [100.51012171200006, 13.824187724000069], [100.50765916500006, 13.822805366000068], [100.50629375000005, 13.819339220000074], [100.50740059800006, 13.816038387000049], [100.51525513000007, 13.813274840000076]]]}}, {"type": "Feature", "properties": {"name_en": "Bang Na", "name_th": "บางนา", "centroid": [100.61853, 13.66768], "bbox": [100.57946, 13.6485, 100.65379, 13.68443]}, "geometry": {"type": "Polygon", "coordinates": [[[100.64023600300004, 13.677941022000027], [100.62465492900009, 13.678408503000071], [100.62277148800007, 13.684428812000021], [100.61052495100006, 13.684276433000036], [100.60033252700003, 13.679943095000056], [100.58876983900007, 13.683015013000045], [100.57945837800008, 13.669222685000022], [100.59210252600008, 13.663807903000077], [100.60043964000005, 13.659463852000044], [100.60132409400006, 13.657032419000075], [100.60280961900008, 13.656506618000037], [100.60351372800005, 13.65840122000003], [100.60556177400008, 13.65847713200003], [100.60871647000005, 13.657214762000024], [100.60821220000008, 13.655920670000057], [100.61637379300004, 13.652675052000063], [100.61784338900009, 13.656061254000065], [100.63292478100004, 13.648844289000067], [100.63627797500004, 13.648502807000057], [100.64075819300007, 13.654635846000076], [100.64480773300005, 13.653638436000051], [100.64970998100006, 13.652504770000064], [100.65379229100006, 13.668975588000023], [100.64523315200006, 13.669607532000043], [100.64023600300004, 13.677941022000027]]]}}, {"type": "Feature", "properties": {"name_en": "Bang Bon", "name_th": "บางบอน", "centroid": [100.39215, 13.65639], "bbox": [100.34468, 13.6197, 100.4468, 13.69368]}, "geometry": {"type": "Polygon", "coordinates": [[[100.44679705800007, 13.682558432000064], [100.43773390500007, 13.693684476000044], [100.42782137100005, 13.687613030000023], [100.39275911700008, 13.669048136000072], [100.38838514000008, 13.668039860000022], [100.38742262800008, 13.67045199000006], [100.38484448200006, 13.671401884000034], [100.36056558700005, 13.661301027000036], [100.35725739500003, 13.661681299000065], [100.35661375400008, 13.65990043000005], [100.35110788700007, 13.657480200000066], [100.34952388500005, 13.655126660000064], [100.34683704300005, 13.655339513000058], [100.34632381100005, 13.649173861000065], [100.34467639000007, 13.649228008000023], [100.34544933700005, 13.644725233000031], [100.34717057500006, 13.645060569000066], [100.34735833800005, 13.643637997000042], [100.34860616200007, 13.643725023000059], [100.34851968100008, 13.641008958000043], [100.35024229000004, 13.640497348000054], [100.35434040900009, 13.640888890000042], [100.35544907600007, 13.636540633000038], [100.35869708800004, 13.637319], [100.35905888300005, 13.632780154000045], [100.36600587100008, 13.633624022000049], [100.37179593500008, 13.622730904000036], [100.37648208400009, 13.619703151000067], [100.44679705800007, 13.682558432000064]]]}}, {"type": "Feature", "properties": {"name_en": "Bang Phlat", "name_th": "บางพลัด", "centroid": [100.49392, 13.78722], "bbox": [100.46594, 13.76193, 100.51749, 13.81327]}, "geometry": {"type": "Polygon", "coordinates": [[[100.46617687000008, 13.788917403000028], [100.46593869000009, 13.787158609000073], [100.46910599100005, 13.787104732000046], [100.49097198800007, 13.761928724000029], [100.49499744700006, 13.765741690000027], [100.49903981300008, 13.77266572700006], [100.50365272200008, 13.783575449000068], [100.51388685400008, 13.795300032000057], [100.51649756100005, 13.80035809800006], [100.51749334000004, 13.808578362000048], [100.51525513000007, 13.813274840000076], [100.50068134600008, 13.800499168000044], [100.46617687000008, 13.788917403000028]]]}}, {"type": "Feature", "properties": {"name_en": "Bang Rak", "name_th": "บางรัก", "centroid": [100.52396, 13.72701], "bbox": [100.51203, 13.71811, 100.54475, 13.73805]}, "geometry": {"type": "Polygon", "coordinates": [[[100.51203169500008, 13.719335614000045], [100.51741400200007, 13.71810578800006], [100.54474537400006, 13.72616625300003], [100.51568779700006, 13.738046738000037], [100.51550224800008, 13.73244294500006], [100.51229834900005, 13.729392587000063], [100.51203169500008, 13.719335614000045]]]}}, {"type": "Feature", "properties": {"name_en": "Bang Khen", "name_th": "บางเขน", "centroid": [100.63064, 13.86682], "bbox": [100.58655, 13.84255, 100.68577, 13.89978]}, "geometry": {"type": "Polygon", "coordinates": [[[100.68449650700006, 13.87424829300005], [100.68131214000005, 13.879676755000048], [100.67580923300005, 13.879105022000033], [100.67380806600005, 13.881099594000034], [100.67253097400004, 13.879678031000026], [100.66933544500006, 13.88113297600006], [100.66481231600005, 13.881073327000024], [100.66253165600006, 13.87885480400007], [100.65959206800005, 13.879494058000034], [100.65618610700005, 13.881507505000059], [100.65533663800005, 13.885582849000059], [100.65311106400009, 13.886380402000043], [100.65263382100005, 13.88294561300006], [100.64427808400006, 13.88275800200006], [100.64295285500003, 13.885728264000022], [100.64033327900006, 13.886746310000035], [100.62954280700006, 13.885542878000024], [100.62388323700009, 13.882939403000023], [100.61236964200003, 13.886220739000066], [100.60879778400005, 13.888467928000068], [100.61136391100007, 13.892374723000046], [100.60869668800007, 13.89570352100003], [100.61113183000003, 13.899779846000058], [100.59481328300006, 13.887630844000057], [100.58814376200007, 13.879615240000021], [100.58654720500004, 13.858933983000043], [100.58986609900006, 13.84392907800003], [100.60236213500008, 13.846864564000043], [100.60698739700007, 13.849267936000047], [100.62000294000006, 13.848368678000043], [100.62868146400007, 13.842687044000058], [100.63294928300007, 13.842546298000059], [100.63712175800003, 13.844668458000058], [100.64598685000004, 13.847368251000034], [100.64814898800006, 13.847620618000064], [100.64873063900006, 13.846211269000037], [100.65864014800007, 13.847763352000072], [100.65830303000007, 13.85239137700006], [100.66114468700005, 13.852579409000043], [100.66319993100007, 13.85603338900006], [100.66474678100008, 13.854693028000042], [100.66967838500005, 13.85695736100007], [100.67545749200008, 13.856381383000041], [100.68036552000007, 13.858667276000062], [100.68311428000004, 13.862001746000033], [100.68577476100006, 13.869323983000072], [100.68449650700006, 13.87424829300005]]]}}, {"type": "Feature", "properties": {"name_en": "Bang Khae", "name_th": "บางแค", "centroid": [100.3951, 13.71611], "bbox": [100.35268, 13.66804, 100.42782, 13.7539]}, "geometry": {"type": "Polygon", "coordinates": [[[100.42782137100005, 13.687613030000023], [100.42486959000007, 13.732060242000045], [100.41775624400003, 13.731224288000021], [100.41666810800007, 13.735610698000073], [100.41551101600004, 13.735832908000077], [100.41597292400007, 13.738278807000029], [100.41440807900005, 13.738800737000076], [100.41338956400006, 13.74793375400003], [100.40618470000004, 13.749437693000061], [100.36910635900006, 13.753897702000074], [100.35268334900007, 13.752164031000063], [100.35935948200006, 13.738002047000066], [100.38140770900009, 13.691572330000042], [100.38523577500007, 13.67593987500004], [100.38484448200006, 13.671401884000034], [100.38742262800008, 13.67045199000006], [100.38838514000008, 13.668039860000022], [100.39275911700008, 13.669048136000072], [100.42782137100005, 13.687613030000023]]]}}, {"type": "Feature", "properties": {"name_en": "Bueng Kum", "name_th": "บึงกุ่ม", "centroid": [100.65134, 13.80844], "bbox": [100.62448, 13.77071, 100.67657, 13.84737]}, "geometry": {"type": "Polygon", "coordinates": [[[100.66462440800007, 13.775369817000069], [100.67513534100004, 13.781205881000062], [100.67380372000008, 13.783834504000026], [100.67656669000007, 13.786744], [100.67353932800006, 13.796316345000037], [100.66868326300005, 13.805671519000043], [100.66664681300006, 13.805101250000064], [100.66286659100007, 13.810090302000049], [100.66013231300008, 13.824427495000066], [100.66126564300004, 13.825779140000066], [100.66142267000004, 13.833478608000064], [100.65790624700008, 13.832988452000052], [100.65730499500006, 13.835574575000066], [100.64859974800004, 13.833888783000077], [100.64772651500004, 13.844167646000074], [100.65021496600008, 13.844833143000074], [100.64598685000004, 13.847368251000034], [100.63712175800003, 13.844668458000058], [100.62447812000005, 13.817398727000068], [100.62598073900006, 13.819306537000045], [100.63133386300007, 13.819191422000074], [100.63100080400005, 13.815476059000048], [100.63410358800007, 13.80949842800004], [100.63925177300007, 13.80410857000004], [100.64047689400007, 13.79222672700007], [100.64271701300004, 13.786944492000032], [100.64816685800008, 13.784770757000047], [100.65618110700007, 13.770707147000053], [100.66462440800007, 13.775369817000069]]]}}, {"type": "Feature", "properties": {"name_en": "Pathum Wan", "name_th": "ปทุมวัน", "centroid": [100.53561, 13.73936], "bbox": [100.51569, 13.72277, 100.55291, 13.7531]}, "geometry": {"type": "Polygon", "coordinates": [[[100.54474537400006, 13.72616625300003], [100.55291228900006, 13.722771623000028], [100.55069532700008, 13.742848937000076], [100.55007543800008, 13.748403346000032], [100.52528962000008, 13.749302932000035], [100.51916671800006, 13.752732672000036], [100.51737146000005, 13.753099860000077], [100.51568779700006, 13.738046738000037], [100.54474537400006, 13.72616625300003]]]}}, {"type": "Feature", "properties": {"name_en": "Prawet", "name_th": "ประเวศ", "centroid": [100.67703, 13.69913], "bbox": [100.63411, 13.65633, 100.71238, 13.73786]}, "geometry": {"type": "Polygon", "coordinates": [[[100.65379229100006, 13.668975588000023], [100.65543553600008, 13.67228678400005], [100.65986768200008, 13.670159605000038], [100.66114972900004, 13.671703798000067], [100.66690756900005, 13.66816975300003], [100.66646652600008, 13.667212900000038], [100.67862303700008, 13.661364491000029], [100.69827132300009, 13.65632908300006], [100.69975932400007, 13.663843751000059], [100.70466481500006, 13.672976601000073], [100.70546227000006, 13.678801858000043], [100.70641271700003, 13.678615355000034], [100.71109348700008, 13.701201226000023], [100.71238135000004, 13.701243924000039], [100.70999435100003, 13.716782075000026], [100.70839322600006, 13.732496905000062], [100.65901055600006, 13.737862488000076], [100.64979637400006, 13.728768638000076], [100.64792996200003, 13.717473049000034], [100.65154958100004, 13.718250777000037], [100.64918775800004, 13.707435986000064], [100.65099697300008, 13.702974532000042], [100.63411112400007, 13.700761585000066], [100.63717479200005, 13.694967227000063], [100.64023600300004, 13.677941022000027], [100.64523315200006, 13.669607532000043], [100.65379229100006, 13.668975588000023]]]}}, {"type": "Feature", "properties": {"name_en": "Pom Prap Sattru Phai", "name_th": "ป้อมปราบศัตรูพ่าย", "centroid": [100.51116, 13.75085], "bbox": [100.5039, 13.73805, 100.51737, 13.76365]}, "geometry": {"type": "Polygon", "coordinates": [[[100.50939924600004, 13.763650817000041], [100.50570793800006, 13.756182284000033], [100.50389819800006, 13.746847599000034], [100.51568779700006, 13.738046738000037], [100.51737146000005, 13.753099860000077], [100.51636838200005, 13.756712125000035], [100.50939924600004, 13.763650817000041]]]}}, {"type": "Feature", "properties": {"name_en": "Phaya Thai", "name_th": "พญาไท", "centroid": [100.54496, 13.7818], "bbox": [100.52789, 13.76272, 100.56163, 13.79785]}, "geometry": {"type": "Polygon", "coordinates": [[[100.53742427600008, 13.79785442900004], [100.52788649100006, 13.774338363000027], [100.54343121400007, 13.762715976000038], [100.54834272900007, 13.76354821600006], [100.56130745900003, 13.787063635000038], [100.56162658600005, 13.794959305000077], [100.53742427600008, 13.79785442900004]]]}}, {"type": "Feature", "properties": {"name_en": "Phra Nakhon", "name_th": "พระนคร", "centroid": [100.49802, 13.75545], "bbox": [100.48794, 13.73863, 100.5094, 13.77267]}, "geometry": {"type": "Polygon", "coordinates": [[[100.49097198800007, 13.761928724000029], [100.48794001000005, 13.756848931000036], [100.48829925000007, 13.748209494000037], [100.49196979800007, 13.742172671000048], [100.49764789800008, 13.739218486000027], [100.49980669000007, 13.738632557000074], [100.50389819800006, 13.746847599000034], [100.50570793800006, 13.756182284000033], [100.50939924600004, 13.763650817000041], [100.50367363600009, 13.769952149000062], [100.49903981300008, 13.77266572700006], [100.49499744700006, 13.765741690000027], [100.49097198800007, 13.761928724000029]]]}}, {"type": "Feature", "properties": {"name_en": "Phra Khanong", "name_th": "พระโขนง", "centroid": [100.61362, 13.69229], "bbox": [100.58392, 13.67794, 100.64024, 13.70684]}, "geometry": {"type": "Polygon", "coordinates": [[[100.64023600300004, 13.677941022000027], [100.63717479200005, 13.694967227000063], [100.63411112400007, 13.700761585000066], [100.63294320100005, 13.703033], [100.62320882100005, 13.703115572000058], [100.62239489500007, 13.705007862000059], [100.61631746100005, 13.704146708000053], [100.61589263300004, 13.706841972000063], [100.60641961200008, 13.705349186000035], [100.60574255000006, 13.706509271000073], [100.60165893700008, 13.704666227000075], [100.58391953000006, 13.69609611900006], [100.58861362700009, 13.690039910000053], [100.58876983900007, 13.683015013000045], [100.60033252700003, 13.679943095000056], [100.61052495100006, 13.684276433000036], [100.62277148800007, 13.684428812000021], [100.62465492900009, 13.678408503000071], [100.64023600300004, 13.677941022000027]]]}}, {"type": "Feature", "properties": {"name_en": "Phasi Charoen", "name_th": "ภาษีเจริญ", "centroid": [100.44152, 13.72367], "bbox": [100.41339, 13.68761, 100.47164, 13.74793]}, "geometry": {"type": "Polygon", "coordinates": [[[100.43773390500007, 13.693684476000044], [100.43470013800004, 13.698903319000067], [100.43911327500007, 13.709361467000065], [100.44998533900008, 13.705328880000025], [100.45274435200008, 13.710118799000043], [100.45589009500009, 13.708429349000028], [100.45519723500007, 13.712577486000043], [100.46333558600008, 13.714834017000044], [100.46283961200004, 13.717891199000064], [100.46923467500005, 13.715962863000073], [100.47163796800004, 13.722443215000055], [100.46719131200007, 13.725267655000039], [100.46293373200007, 13.732249306000028], [100.46205219200004, 13.744419748000041], [100.45713014000006, 13.744060668000031], [100.45617189200004, 13.742128485000023], [100.45442338800007, 13.74261935900006], [100.44991549800005, 13.74049758600006], [100.43505137600005, 13.740088297000057], [100.41338956400006, 13.74793375400003], [100.41440807900005, 13.738800737000076], [100.41597292400007, 13.738278807000029], [100.41551101600004, 13.735832908000077], [100.41666810800007, 13.735610698000073], [100.41775624400003, 13.731224288000021], [100.42486959000007, 13.732060242000045], [100.42782137100005, 13.687613030000023], [100.43773390500007, 13.693684476000044]]]}}, {"type": "Feature", "properties": {"name_en": "Min Buri", "name_th": "มีนบุรี", "centroid": [100.75419, 13.80875], "bbox": [100.69678, 13.77322, 100.80776, 13.84929]}, "geometry": {"type": "Polygon", "coordinates": [[[100.70496396600004, 13.797679626000047], [100.70608059000006, 13.798328004000041], [100.70768348100006, 13.795655230000023], [100.71640317600009, 13.778113848000032], [100.72084243600005, 13.778255001000048], [100.72444105800008, 13.776302600000065], [100.73354526100007, 13.774784271000044], [100.73892829500005, 13.777403130000039], [100.73894365900009, 13.773224110000058], [100.74646468800006, 13.773490920000029], [100.74655989500008, 13.777874441000051], [100.75540367800005, 13.777777756000035], [100.75977470600009, 13.775500778000037], [100.76486051600006, 13.781725062000078], [100.77673082100006, 13.78320440300007], [100.78398302900007, 13.781901615000038], [100.78241710100008, 13.798782054000071], [100.78854859000006, 13.800390858000071], [100.79509311000004, 13.793974302000038], [100.79789256100008, 13.798701751000067], [100.80774652900004, 13.80798210000006], [100.80348907900009, 13.807973872000048], [100.80176822000004, 13.80945838100007], [100.80091631200008, 13.817453729000022], [100.80392533600008, 13.825869813000054], [100.80590594500006, 13.826092161000076], [100.80775792700007, 13.839367292000077], [100.80651078600005, 13.84409701900006], [100.80183097700007, 13.84251516200004], [100.79899596500007, 13.849289744000032], [100.74931842500007, 13.822072196000022], [100.74672845000003, 13.824752735000061], [100.74416048200004, 13.83476390800007], [100.73992853700008, 13.837395750000042], [100.73588932500007, 13.836785145000022], [100.73546908400004, 13.838456396000026], [100.72965768000006, 13.83645086000007], [100.72973239400005, 13.827673738000044], [100.72255367800005, 13.827513487000033], [100.72232267300006, 13.837492275000045], [100.72019245500007, 13.837278720000029], [100.72017553200004, 13.831495735000033], [100.71456868200005, 13.831335459000059], [100.71543673800005, 13.821897660000047], [100.70577847300007, 13.821144620000041], [100.69677590500004, 13.81549276100003], [100.69810061300007, 13.811848138000073], [100.70186407700004, 13.809140273000025], [100.70056308400007, 13.80458324500006], [100.70496396600004, 13.797679626000047]]]}}, {"type": "Feature", "properties": {"name_en": "Yan Nawa", "name_th": "ยานนาวา", "centroid": [100.53953, 13.69074], "bbox": [100.51698, 13.66928, 100.55487, 13.71925]}, "geometry": {"type": "Polygon", "coordinates": [[[100.51698184600008, 13.682678629000065], [100.52340115700008, 13.677882705000059], [100.53080687300007, 13.671738150000067], [100.53654959900007, 13.669280956000023], [100.54189722400008, 13.669406051000067], [100.54735667900007, 13.672603031000051], [100.55162472000006, 13.67976728800005], [100.55258370500007, 13.68796425000005], [100.55139843100005, 13.700082983000073], [100.55486719200007, 13.705483354000023], [100.55375391500007, 13.716543495000053], [100.54901760900003, 13.719250706000025], [100.54168185800006, 13.710600009000075], [100.54361431700005, 13.707010786000069], [100.53914642200004, 13.70442538900005], [100.53761001900006, 13.707226007000031], [100.53416061700005, 13.705539446000046], [100.52863096500005, 13.70598525500003], [100.52994573900008, 13.702543641000034], [100.53176057800005, 13.698253744000056], [100.51698184600008, 13.682678629000065]]]}}, {"type": "Feature", "properties": {"name_en": "Ratchathewi", "name_th": "ราชเทวี", "centroid": [100.53856, 13.7571], "bbox": [100.51917, 13.74789, 100.56497, 13.77434]}, "geometry": {"type": "Polygon", "coordinates": [[[100.54343121400007, 13.762715976000038], [100.52788649100006, 13.774338363000027], [100.51916671800006, 13.752732672000036], [100.52528962000008, 13.749302932000035], [100.55007543800008, 13.748403346000032], [100.56329744400006, 13.747890403000042], [100.56496850000008, 13.75512621300004], [100.55246539200004, 13.75598823200005], [100.55039728200006, 13.758688550000045], [100.54343121400007, 13.762715976000038]]]}}, {"type": "Feature", "properties": {"name_en": "Rat Burana", "name_th": "ราษฎร์บูรณะ", "centroid": [100.49962, 13.67294], "bbox": [100.47556, 13.65296, 100.5234, 13.69526]}, "geometry": {"type": "Polygon", "coordinates": [[[100.48999809100007, 13.695261866000067], [100.48254528000007, 13.694834889000049], [100.48151025900006, 13.690485569000032], [100.48898328700005, 13.684649896000053], [100.48735931400006, 13.682491625000068], [100.48853453900006, 13.679530983000063], [100.48019063200007, 13.669203700000025], [100.48213251200008, 13.664770629000031], [100.47556355600005, 13.66357707000003], [100.47579651200004, 13.661882128000059], [100.48232733000003, 13.663070828000059], [100.48539054100007, 13.657828497000025], [100.49325261500007, 13.655744170000048], [100.49404086600003, 13.657261256000027], [100.50100784100005, 13.652963114000045], [100.50822701900006, 13.662746408000032], [100.51328006900007, 13.66074493900004], [100.51751520700009, 13.661599672000023], [100.51759087200008, 13.667289883000024], [100.52106359700008, 13.669191739000041], [100.52041862900006, 13.67098928400003], [100.52200117400008, 13.673561966000022], [100.52040105100008, 13.675643335000075], [100.52340115700008, 13.677882705000059], [100.51698184600008, 13.682678629000065], [100.49555877600005, 13.688490226000056], [100.49182469300007, 13.691569282000046], [100.48999809100007, 13.695261866000067]]]}}, {"type": "Feature", "properties": {"name_en": "Lat Krabang", "name_th": "ลาดกระบัง", "centroid": [100.79288, 13.74383], "bbox": [100.70661, 13.68956, 100.87883, 13.80039]}, "geometry": {"type": "Polygon", "coordinates": [[[100.86076681300005, 13.696903409000072], [100.85506855800008, 13.699272504000021], [100.87883300700008, 13.737877175000051], [100.87482207000005, 13.739160355000024], [100.86706481400006, 13.75182097000004], [100.86464727900005, 13.765137421000077], [100.86080076600007, 13.770468383000036], [100.84263048700006, 13.770976756000039], [100.83749380700004, 13.767599928000038], [100.83234659900006, 13.767476747000046], [100.82923266900008, 13.772183821000056], [100.82270032600007, 13.777811069000052], [100.82280832500004, 13.779778265000061], [100.81474561300007, 13.784276181000052], [100.80877700900004, 13.781637599000021], [100.80076662700009, 13.781653851000044], [100.79388957400005, 13.78386848100007], [100.79618021500005, 13.78930716700006], [100.79509311000004, 13.793974302000038], [100.78854859000006, 13.800390858000071], [100.78241710100008, 13.798782054000071], [100.78398302900007, 13.781901615000038], [100.77673082100006, 13.78320440300007], [100.76486051600006, 13.781725062000078], [100.75977470600009, 13.775500778000037], [100.75540367800005, 13.777777756000035], [100.74655989500008, 13.777874441000051], [100.74646468800006, 13.773490920000029], [100.73894365900009, 13.773224110000058], [100.73892829500005, 13.777403130000039], [100.73354526100007, 13.774784271000044], [100.72444105800008, 13.776302600000065], [100.72084243600005, 13.778255001000048], [100.71640317600009, 13.778113848000032], [100.71608025900008, 13.77169049400004], [100.70660631500004, 13.756760642000074], [100.70985823000007, 13.756401503000063], [100.70839322600006, 13.732496905000062], [100.70999435100003, 13.716782075000026], [100.71615930000007, 13.716898804000039], [100.71624612100004, 13.718189041000073], [100.75208337800007, 13.715910432000044], [100.76451454300008, 13.716497030000028], [100.76674616400004, 13.715277461000028], [100.78335778600007, 13.716618769000036], [100.79454859300006, 13.714463680000051], [100.85934736500008, 13.689560424000035], [100.86076681300005, 13.696903409000072]]]}}, {"type": "Feature", "properties": {"name_en": "Lat Phrao", "name_th": "ลาดพร้าว", "centroid": [100.60865, 13.82427], "bbox": [100.58834, 13.79481, 100.63712, 13.84927]}, "geometry": {"type": "Polygon", "coordinates": [[[100.62447812000005, 13.817398727000068], [100.63712175800003, 13.844668458000058], [100.63294928300007, 13.842546298000059], [100.62868146400007, 13.842687044000058], [100.62000294000006, 13.848368678000043], [100.60698739700007, 13.849267936000047], [100.60236213500008, 13.846864564000043], [100.58986609900006, 13.84392907800003], [100.59111797400004, 13.837485107000077], [100.58834139400005, 13.802980927000021], [100.58838302000004, 13.802839008000035], [100.59640186900003, 13.801275539000073], [100.59591929500004, 13.799296216000073], [100.59959329700007, 13.796149396000033], [100.60535177600008, 13.795166916000028], [100.61289463600008, 13.79481478300005], [100.61506420100005, 13.799774373000048], [100.62447812000005, 13.817398727000068]]]}}, {"type": "Feature", "properties": {"name_en": "Wang Thonglang", "name_th": "วังทองหลาง", "centroid": [100.60967, 13.77857], "bbox": [100.58838, 13.7512, 100.63066, 13.80284]}, "geometry": {"type": "Polygon", "coordinates": [[[100.61506420100005, 13.799774373000048], [100.61289463600008, 13.79481478300005], [100.60535177600008, 13.795166916000028], [100.59959329700007, 13.796149396000033], [100.59591929500004, 13.799296216000073], [100.59640186900003, 13.801275539000073], [100.58838302000004, 13.802839008000035], [100.59018492700005, 13.786503221000032], [100.59352134200009, 13.779423726000061], [100.59491088700008, 13.762585534000038], [100.59792483400008, 13.75732148800006], [100.60409512000007, 13.751200633000053], [100.61524688900005, 13.761274456000024], [100.63048933300007, 13.763254790000076], [100.62827291300005, 13.775646442000038], [100.62924874800007, 13.775091386000042], [100.63065504900004, 13.784105992000036], [100.62904933000004, 13.788697543000069], [100.62591307900004, 13.788103773000046], [100.62363650800006, 13.800218648000055], [100.61506420100005, 13.799774373000048]]]}}, {"type": "Feature", "properties": {"name_en": "Vadhana", "name_th": "วัฒนา", "centroid": [100.58382, 13.73175], "bbox": [100.55008, 13.70467, 100.60681, 13.7484]}, "geometry": {"type": "Polygon", "coordinates": [[[100.56329744400006, 13.747890403000042], [100.55007543800008, 13.748403346000032], [100.55069532700008, 13.742848937000076], [100.59840645600008, 13.710325389000047], [100.60165893700008, 13.704666227000075], [100.60574255000006, 13.706509271000073], [100.60187956600004, 13.711945774000071], [100.60673811300006, 13.716143808000027], [100.60680537900004, 13.719028681000054], [100.60528171900006, 13.720144007000044], [100.60502214100006, 13.737714568000058], [100.59846589300008, 13.738299169000072], [100.59815193000009, 13.741144634000023], [100.56329744400006, 13.747890403000042]]]}}, {"type": "Feature", "properties": {"name_en": "Suan Luang", "name_th": "สวนหลวง", "centroid": [100.62807, 13.72588], "bbox": [100.59815, 13.70076, 100.65909, 13.75012]}, "geometry": {"type": "Polygon", "coordinates": [[[100.60125180600005, 13.748090111000067], [100.59815193000009, 13.741144634000023], [100.59846589300008, 13.738299169000072], [100.60502214100006, 13.737714568000058], [100.60528171900006, 13.720144007000044], [100.60680537900004, 13.719028681000054], [100.60673811300006, 13.716143808000027], [100.60187956600004, 13.711945774000071], [100.60574255000006, 13.706509271000073], [100.60641961200008, 13.705349186000035], [100.61589263300004, 13.706841972000063], [100.61631746100005, 13.704146708000053], [100.62239489500007, 13.705007862000059], [100.62320882100005, 13.703115572000058], [100.63294320100005, 13.703033], [100.63411112400007, 13.700761585000066], [100.65099697300008, 13.702974532000042], [100.64918775800004, 13.707435986000064], [100.65154958100004, 13.718250777000037], [100.64792996200003, 13.717473049000034], [100.64979637400006, 13.728768638000076], [100.65901055600006, 13.737862488000076], [100.65908613500005, 13.738385275000041], [100.64860509200008, 13.741820346000054], [100.64747608000005, 13.742633450000028], [100.64855029400007, 13.744072596000024], [100.64556378800006, 13.746450692000053], [100.63581013800007, 13.750120755000069], [100.61109040800005, 13.743826138000031], [100.60125180600005, 13.748090111000067]]]}}, {"type": "Feature", "properties": {"name_en": "Saphan Sung", "name_th": "สะพานสูง", "centroid": [100.69135, 13.76263], "bbox": [100.65901, 13.7325, 100.7164, 13.79833]}, "geometry": {"type": "Polygon", "coordinates": [[[100.65908613500005, 13.738385275000041], [100.65901055600006, 13.737862488000076], [100.70839322600006, 13.732496905000062], [100.70985823000007, 13.756401503000063], [100.70660631500004, 13.756760642000074], [100.71608025900008, 13.77169049400004], [100.71640317600009, 13.778113848000032], [100.70768348100006, 13.795655230000023], [100.70608059000006, 13.798328004000041], [100.70496396600004, 13.797679626000047], [100.67513534100004, 13.781205881000062], [100.66462440800007, 13.775369817000069], [100.66880289700003, 13.766623625000022], [100.66971897200006, 13.756283395000025], [100.67888656600007, 13.752104317000033], [100.67701455200006, 13.749064367000074], [100.67225585200003, 13.749486771000022], [100.66631811700006, 13.747047328000065], [100.66303463000008, 13.742206295000074], [100.66333094700008, 13.740227551000032], [100.65908613500005, 13.738385275000041]]]}}, {"type": "Feature", "properties": {"name_en": "Samphanthawong", "name_th": "สัมพันธวงศ์", "centroid": [100.50852, 13.73855], "bbox": [100.49981, 13.72939, 100.51569, 13.74685]}, "geometry": {"type": "Polygon", "coordinates": [[[100.51568779700006, 13.738046738000037], [100.50389819800006, 13.746847599000034], [100.49980669000007, 13.738632557000074], [100.50916477600003, 13.735408780000057], [100.51229834900005, 13.729392587000063], [100.51550224800008, 13.73244294500006], [100.51568779700006, 13.738046738000037]]]}}, {"type": "Feature", "properties": {"name_en": "Sathon", "name_th": "สาทร", "centroid": [100.53091, 13.71417], "bbox": [100.50817, 13.70089, 100.55375, 13.72617]}, "geometry": {"type": "Polygon", "coordinates": [[[100.52994573900008, 13.702543641000034], [100.52863096500005, 13.70598525500003], [100.53416061700005, 13.705539446000046], [100.53761001900006, 13.707226007000031], [100.53914642200004, 13.70442538900005], [100.54361431700005, 13.707010786000069], [100.54168185800006, 13.710600009000075], [100.54901760900003, 13.719250706000025], [100.55375391500007, 13.716543495000053], [100.55291228900006, 13.722771623000028], [100.54474537400006, 13.72616625300003], [100.51741400200007, 13.71810578800006], [100.51203169500008, 13.719335614000045], [100.50817089700007, 13.712460984000074], [100.51695374000008, 13.709648942000058], [100.51462529600008, 13.704920816000026], [100.51967571900008, 13.70322284200006], [100.52064289600008, 13.70416984800005], [100.52492442600004, 13.700885524000057], [100.52994573900008, 13.702543641000034]]]}}, {"type": "Feature", "properties": {"name_en": "Sai Mai", "name_th": "สายไหม", "centroid": [100.65327, 13.9063], "bbox": [100.6087, 13.87425, 100.69229, 13.95025]}, "geometry": {"type": "Polygon", "coordinates": [[[100.68449650700006, 13.87424829300005], [100.68992699100005, 13.87969957000007], [100.69012152000005, 13.88470925200005], [100.69211105400007, 13.886731693000058], [100.69228964000007, 13.898095745000035], [100.68696626100007, 13.909351489000073], [100.68364355300008, 13.911516582000047], [100.68378637200004, 13.913543797000045], [100.68695337600008, 13.916254426000023], [100.68973081200005, 13.931053496000061], [100.64087752400008, 13.931411085000036], [100.63961443100004, 13.932372588000021], [100.63977170800007, 13.937588141000049], [100.62552439500007, 13.938205280000034], [100.62539418700004, 13.947849156000075], [100.62254545900004, 13.950251041000058], [100.62659362600004, 13.926129569000068], [100.61113183000003, 13.899779846000058], [100.60869668800007, 13.89570352100003], [100.61136391100007, 13.892374723000046], [100.60879778400005, 13.888467928000068], [100.61236964200003, 13.886220739000066], [100.62388323700009, 13.882939403000023], [100.62954280700006, 13.885542878000024], [100.64033327900006, 13.886746310000035], [100.64295285500003, 13.885728264000022], [100.64427808400006, 13.88275800200006], [100.65263382100005, 13.88294561300006], [100.65311106400009, 13.886380402000043], [100.65533663800005, 13.885582849000059], [100.65618610700005, 13.881507505000059], [100.65959206800005, 13.879494058000034], [100.66253165600006, 13.87885480400007], [100.66481231600005, 13.881073327000024], [100.66933544500006, 13.88113297600006], [100.67253097400004, 13.879678031000026], [100.67380806600005, 13.881099594000034], [100.67580923300005, 13.879105022000033], [100.68131214000005, 13.879676755000048], [100.68449650700006, 13.87424829300005]]]}}, {"type": "Feature", "properties": {"name_en": "Nong Chok", "name_th": "หนองจอก", "centroid": [100.85732, 13.85263], "bbox": [100.78742, 13.73788, 100.93852, 13.94649]}, "geometry": {"type": "Polygon", "coordinates": [[[100.91398311800003, 13.946490894000021], [100.86330787300005, 13.939143053000066], [100.79259302400004, 13.931387879000056], [100.79233765900005, 13.893505661000063], [100.79593385600003, 13.89054888100003], [100.79094480800006, 13.881906568000034], [100.78742159600006, 13.879987173000075], [100.79899596500007, 13.849289744000032], [100.80183097700007, 13.84251516200004], [100.80651078600005, 13.84409701900006], [100.80775792700007, 13.839367292000077], [100.80590594500006, 13.826092161000076], [100.80392533600008, 13.825869813000054], [100.80091631200008, 13.817453729000022], [100.80176822000004, 13.80945838100007], [100.80348907900009, 13.807973872000048], [100.80774652900004, 13.80798210000006], [100.79789256100008, 13.798701751000067], [100.79509311000004, 13.793974302000038], [100.79618021500005, 13.78930716700006], [100.79388957400005, 13.78386848100007], [100.80076662700009, 13.781653851000044], [100.80877700900004, 13.781637599000021], [100.81474561300007, 13.784276181000052], [100.82280832500004, 13.779778265000061], [100.82270032600007, 13.777811069000052], [100.82923266900008, 13.772183821000056], [100.83234659900006, 13.767476747000046], [100.83749380700004, 13.767599928000038], [100.84263048700006, 13.770976756000039], [100.86080076600007, 13.770468383000036], [100.86464727900005, 13.765137421000077], [100.86706481400006, 13.75182097000004], [100.87482207000005, 13.739160355000024], [100.87883300700008, 13.737877175000051], [100.90979463500008, 13.790478869000026], [100.92827235100003, 13.801280228000053], [100.93085189000004, 13.804404244000068], [100.93851625700006, 13.814255677000062], [100.90754927800003, 13.838104561000023], [100.91268478700005, 13.846797639000044], [100.90420464800007, 13.848422871000025], [100.90589415000005, 13.855226551000044], [100.90678514100006, 13.885262996000051], [100.91398311800003, 13.946490894000021]]]}}, {"type": "Feature", "properties": {"name_en": "Nong Khaem", "name_th": "หนองแขม", "centroid": [100.35522, 13.69567], "bbox": [100.33023, 13.65499, 100.38524, 13.738]}, "geometry": {"type": "Polygon", "coordinates": [[[100.38484448200006, 13.671401884000034], [100.38523577500007, 13.67593987500004], [100.38140770900009, 13.691572330000042], [100.35935948200006, 13.738002047000066], [100.33745528100008, 13.736036289000026], [100.33748581800006, 13.733908920000033], [100.33514042800005, 13.73348518000006], [100.33674363100005, 13.729793667000024], [100.33477338200004, 13.728392823000036], [100.335739, 13.722985034000033], [100.33022786000004, 13.721216534000064], [100.33033285600004, 13.719719976000022], [100.33311072600009, 13.720837635000066], [100.33877210000009, 13.712768633000053], [100.33611676200007, 13.71082296000003], [100.33414435800006, 13.713061560000028], [100.33232533500006, 13.712464130000058], [100.33342690200004, 13.706487572000071], [100.33235310400005, 13.69991770200005], [100.33055820000004, 13.699174627000048], [100.33356716400004, 13.681404414000042], [100.33606894100006, 13.676991674000021], [100.33759980000008, 13.677326406000077], [100.34125102900003, 13.661313715000063], [100.33938354700007, 13.654990333000057], [100.34683704300005, 13.655339513000058], [100.34952388500005, 13.655126660000064], [100.35110788700007, 13.657480200000066], [100.35661375400008, 13.65990043000005], [100.35725739500003, 13.661681299000065], [100.36056558700005, 13.661301027000036], [100.38484448200006, 13.671401884000034]]]}}, {"type": "Feature", "properties": {"name_en": "Lak Si", "name_th": "หลักสี่", "centroid": [100.56797, 13.87976], "bbox": [100.54363, 13.84963, 100.59481, 13.91446]}, "geometry": {"type": "Polygon", "coordinates": [[[100.59481328300006, 13.887630844000057], [100.58273825800006, 13.890774403000023], [100.58747844500004, 13.899376195000059], [100.57178946000005, 13.906954042000052], [100.56318329100009, 13.91333430800006], [100.55889311700008, 13.914457016000028], [100.55028518200004, 13.877585603000057], [100.54362947200008, 13.849628112000062], [100.55789510000005, 13.854132105000076], [100.58654720500004, 13.858933983000043], [100.58814376200007, 13.879615240000021], [100.59481328300006, 13.887630844000057]]]}}, {"type": "Feature", "properties": {"name_en": "Huai Khwang", "name_th": "ห้วยขวาง", "centroid": [100.58311, 13.76742], "bbox": [100.5633, 13.74114, 100.6041, 13.80298]}, "geometry": {"type": "Polygon", "coordinates": [[[100.60409512000007, 13.751200633000053], [100.59792483400008, 13.75732148800006], [100.59491088700008, 13.762585534000038], [100.59352134200009, 13.779423726000061], [100.59018492700005, 13.786503221000032], [100.58838302000004, 13.802839008000035], [100.58834139400005, 13.802980927000021], [100.57489622500003, 13.801069838000046], [100.57341608800004, 13.770911003000037], [100.56683518500006, 13.76152459900004], [100.56496850000008, 13.75512621300004], [100.56329744400006, 13.747890403000042], [100.59815193000009, 13.741144634000023], [100.60125180600005, 13.748090111000067], [100.60409512000007, 13.751200633000053]]]}}]}